{
  "type": "FeatureCollection",
  "features": [
    {
      "type": "Feature",
      "properties": {
        "norad_id": 41019,
        "name": "GPS BIIF-11 (PRN 10)",
        "group": "gnss",
        "lat": 6.733370031585335,
        "lon": -146.050530323393,
        "alt_km": 20021.949698826327,
        "timestamp": "2025-12-03T13:52:09.804202+00:00",
        "meta_object_name": "GPS BIIF-11 (PRN 10)",
        "meta_object_id": "2015-062A",
        "meta_epoch": "2025-12-01T20:11:25.978560",
        "meta_mean_motion": 2.00566903,
        "meta_eccentricity": 0.01105097,
        "meta_inclination": 56.8244,
        "meta_ra_of_asc_node": 38.424,
        "meta_arg_of_pericenter": 229.6519,
        "meta_mean_anomaly": 129.4268,
        "meta_ephemeris_type": 0,
        "meta_classification_type": "U",
        "meta_norad_cat_id": 41019,
        "meta_element_set_no": 999,
        "meta_rev_at_epoch": 7387,
        "meta_bstar": 0,
        "meta_mean_motion_dot": -6.5e-07,
        "meta_mean_motion_ddot": 0,
        "tle_line1": "1 41019U 15062A   25335.84127290 -.00000065  00000+0  00000+0 0  9990",
        "tle_line2": "2 41019  56.8244  38.4240 0110509 229.6519 129.4268  2.00566903 73875"
      },
      "geometry": {
        "type": "Point",
        "coordinates": [
          -146.050530323393,
          6.733370031585335
        ]
      }
    },
    {
      "type": "Feature",
      "properties": {
        "norad_id": 41028,
        "name": "GSAT-15 (GAGAN/PRN 139)",
        "group": "gnss",
        "lat": 0.005915426843403685,
        "lon": 14.200126363033627,
        "alt_km": 35795.86874857818,
        "timestamp": "2025-12-03T13:52:09.804214+00:00",
        "meta_object_name": "GSAT-15 (GAGAN/PRN 139)",
        "meta_object_id": "2015-065A",
        "meta_epoch": "2025-12-03T07:21:08.652960",
        "meta_mean_motion": 1.0027202,
        "meta_eccentricity": 0.00029792,
        "meta_inclination": 0.0284,
        "meta_ra_of_asc_node": 83.2334,
        "meta_arg_of_pericenter": 149.6615,
        "meta_mean_anomaly": 43.2861,
        "meta_ephemeris_type": 0,
        "meta_classification_type": "U",
        "meta_norad_cat_id": 41028,
        "meta_element_set_no": 999,
        "meta_rev_at_epoch": 3683,
        "meta_bstar": 0,
        "meta_mean_motion_dot": -2.39e-06,
        "meta_mean_motion_ddot": 0,
        "tle_line1": "1 41028U 15065A   25337.30635015 -.00000239  00000+0  00000+0 0  9998",
        "tle_line2": "2 41028   0.0284  83.2334 0002979 149.6615  43.2861  1.00272020 36831"
      },
      "geometry": {
        "type": "Point",
        "coordinates": [
          14.200126363033627,
          0.005915426843403685
        ]
      }
    },
    {
      "type": "Feature",
      "properties": {
        "norad_id": 41174,
        "name": "GSAT0209 (GALILEO 12)",
        "group": "gnss",
        "lat": -54.15404641467707,
        "lon": 35.86459750765292,
        "alt_km": 23226.33714686113,
        "timestamp": "2025-12-03T13:52:09.804226+00:00",
        "meta_object_name": "GSAT0209 (GALILEO 12)",
        "meta_object_id": "2015-079A",
        "meta_epoch": "2025-12-01T22:43:10.411392",
        "meta_mean_motion": 1.70474306,
        "meta_eccentricity": 0.0002352,
        "meta_inclination": 55.7062,
        "meta_ra_of_asc_node": 106.6773,
        "meta_arg_of_pericenter": 357.4206,
        "meta_mean_anomaly": 2.5431,
        "meta_ephemeris_type": 0,
        "meta_classification_type": "U",
        "meta_norad_cat_id": 41174,
        "meta_element_set_no": 999,
        "meta_rev_at_epoch": 6141,
        "meta_bstar": 0,
        "meta_mean_motion_dot": 3.5e-07,
        "meta_mean_motion_ddot": 0,
        "tle_line1": "1 41174U 15079A   25335.94664828  .00000035  00000+0  00000+0 0  9990",
        "tle_line2": "2 41174  55.7062 106.6773 0002352 357.4206   2.5431  1.70474306 61412"
      },
      "geometry": {
        "type": "Point",
        "coordinates": [
          35.86459750765292,
          -54.15404641467707
        ]
      }
    },
    {
      "type": "Feature",
      "properties": {
        "norad_id": 41175,
        "name": "GSAT0208 (GALILEO 11)",
        "group": "gnss",
        "lat": 27.444536259702293,
        "lon": -94.13691053923613,
        "alt_km": 23222.878714658513,
        "timestamp": "2025-12-03T13:52:09.804237+00:00",
        "meta_object_name": "GSAT0208 (GALILEO 11)",
        "meta_object_id": "2015-079B",
        "meta_epoch": "2025-12-02T18:04:51.780576",
        "meta_mean_motion": 1.70474153,
        "meta_eccentricity": 0.00018919,
        "meta_inclination": 55.7052,
        "meta_ra_of_asc_node": 106.6523,
        "meta_arg_of_pericenter": 10.0407,
        "meta_mean_anomaly": 349.9226,
        "meta_ephemeris_type": 0,
        "meta_classification_type": "U",
        "meta_norad_cat_id": 41175,
        "meta_element_set_no": 999,
        "meta_rev_at_epoch": 6184,
        "meta_bstar": 0,
        "meta_mean_motion_dot": 2.7e-07,
        "meta_mean_motion_ddot": 0,
        "tle_line1": "1 41175U 15079B   25336.75337709  .00000027  00000+0  00000+0 0  9997",
        "tle_line2": "2 41175  55.7052 106.6523 0001891  10.0407 349.9226  1.70474153 61844"
      },
      "geometry": {
        "type": "Point",
        "coordinates": [
          -94.13691053923613,
          27.444536259702293
        ]
      }
    },
    {
      "type": "Feature",
      "properties": {
        "norad_id": 41241,
        "name": "IRNSS-1E",
        "group": "gnss",
        "lat": -15.724224567215312,
        "lon": 36.695374769019764,
        "alt_km": 35861.36549794249,
        "timestamp": "2025-12-03T13:52:09.804249+00:00",
        "meta_object_name": "IRNSS-1E",
        "meta_object_id": "2016-003A",
        "meta_epoch": "2025-12-02T15:46:14.293632",
        "meta_mean_motion": 1.00278203,
        "meta_eccentricity": 0.00219463,
        "meta_inclination": 32.8036,
        "meta_ra_of_asc_node": 62.6001,
        "meta_arg_of_pericenter": 186.4596,
        "meta_mean_anomaly": 170.9534,
        "meta_ephemeris_type": 0,
        "meta_classification_type": "U",
        "meta_norad_cat_id": 41241,
        "meta_element_set_no": 999,
        "meta_rev_at_epoch": 3610,
        "meta_bstar": 0,
        "meta_mean_motion_dot": -3.03e-06,
        "meta_mean_motion_ddot": 0,
        "tle_line1": "1 41241U 16003A   25336.65710988 -.00000303  00000+0  00000+0 0  9990",
        "tle_line2": "2 41241  32.8036  62.6001 0021946 186.4596 170.9534  1.00278203 36104"
      },
      "geometry": {
        "type": "Point",
        "coordinates": [
          36.695374769019764,
          -15.724224567215312
        ]
      }
    },
    {
      "type": "Feature",
      "properties": {
        "norad_id": 41328,
        "name": "GPS BIIF-12 (PRN 32)",
        "group": "gnss",
        "lat": 49.359145536299025,
        "lon": -136.26080545068058,
        "alt_km": 20333.08762352704,
        "timestamp": "2025-12-03T13:52:09.804262+00:00",
        "meta_object_name": "GPS BIIF-12 (PRN 32)",
        "meta_object_id": "2016-007A",
        "meta_epoch": "2025-12-01T22:09:54.041760",
        "meta_mean_motion": 2.0056114,
        "meta_eccentricity": 0.00916487,
        "meta_inclination": 55.3999,
        "meta_ra_of_asc_node": 97.2864,
        "meta_arg_of_pericenter": 243.3101,
        "meta_mean_anomaly": 115.7282,
        "meta_ephemeris_type": 0,
        "meta_classification_type": "U",
        "meta_norad_cat_id": 41328,
        "meta_element_set_no": 999,
        "meta_rev_at_epoch": 7188,
        "meta_bstar": 0,
        "meta_mean_motion_dot": 1.1e-07,
        "meta_mean_motion_ddot": 0,
        "tle_line1": "1 41328U 16007A   25335.92354215  .00000011  00000+0  00000+0 0  9991",
        "tle_line2": "2 41328  55.3999  97.2864 0091648 243.3101 115.7282  2.00561140 71887"
      },
      "geometry": {
        "type": "Point",
        "coordinates": [
          -136.26080545068058,
          49.359145536299025
        ]
      }
    },
    {
      "type": "Feature",
      "properties": {
        "norad_id": 41330,
        "name": "COSMOS 2514 (751)",
        "group": "gnss",
        "lat": -17.78849358104736,
        "lon": -48.847315550545524,
        "alt_km": 19148.70963095642,
        "timestamp": "2025-12-03T13:52:09.804274+00:00",
        "meta_object_name": "COSMOS 2514 (751)",
        "meta_object_id": "2016-008A",
        "meta_epoch": "2025-12-02T04:41:58.161984",
        "meta_mean_motion": 2.13102491,
        "meta_eccentricity": 0.00124931,
        "meta_inclination": 65.1398,
        "meta_ra_of_asc_node": 319.7653,
        "meta_arg_of_pericenter": 219.8518,
        "meta_mean_anomaly": 140.0636,
        "meta_ephemeris_type": 0,
        "meta_classification_type": "U",
        "meta_norad_cat_id": 41330,
        "meta_element_set_no": 999,
        "meta_rev_at_epoch": 7642,
        "meta_bstar": 0,
        "meta_mean_motion_dot": -3.3e-07,
        "meta_mean_motion_ddot": 0,
        "tle_line1": "1 41330U 16008A   25336.19581206 -.00000033  00000+0  00000+0 0  9992",
        "tle_line2": "2 41330  65.1398 319.7653 0012493 219.8518 140.0636  2.13102491 76424"
      },
      "geometry": {
        "type": "Point",
        "coordinates": [
          -48.847315550545524,
          -17.78849358104736
        ]
      }
    }
  ]
}